{"type": "FeatureCollection", "features": [ {"type": "Feature", "properties": {"norad_id": 42741, "name": "EUTELSAT 172B", "group": "eutelsat", "lat": 0.0003247464995935522, "lon": 46.22010309175079, "alt_km": 35787.15316534162, "timestamp": "2025-12-02T10:50:46.944935+00:00", "meta": {"OBJECT_NAME": "EUTELSAT 172B", "OBJECT_ID": "2017-029B", "EPOCH": "2025-12-02T01:27:38.476800", "MEAN_MOTION": 1.00270459, "ECCENTRICITY": 1.69e-05, "INCLINATION": 0.0058, "RA_OF_ASC_NODE": 208.97, "ARG_OF_PERICENTER": 14.4523, "MEAN_ANOMALY": 41.6573, "EPHEMERIS_TYPE": 0, "CLASSIFICATION_TYPE": "U", "NORAD_CAT_ID": 42741, "ELEMENT_SET_NO": 999, "REV_AT_EPOCH": 3175, "BSTAR": 0, "MEAN_MOTION_DOT": 1.5e-07, "MEAN_MOTION_DDOT": 0}, "tle": {"line1": "1 42741U 17029B   25336.06086200  .00000015  00000+0  00000+0 0  9992", "line2": "2 42741   0.0058 208.9700 0000169  14.4523  41.6573  1.00270459 31754"}}, "geometry": {"type": "Point", "coordinates": [46.22010309175079, 0.0003247464995935522]}}, {"type": "Feature", "properties": {"norad_id": 44334, "name": "EUTELSAT 7C", "group": "eutelsat", "lat": 0.036975283043453454, "lon": -118.78088148845464, "alt_km": 35772.69283554634, "timestamp": "2025-12-02T10:50:46.944947+00:00", "meta": {"OBJECT_NAME": "EUTELSAT 7C", "OBJECT_ID": "2019-034B", "EPOCH": "2025-12-02T03:32:42.105120", "MEAN_MOTION": 1.00269329, "ECCENTRICITY": 0.0003345, "INCLINATION": 0.0767, "RA_OF_ASC_NODE": 181.5669, "ARG_OF_PERICENTER": 52.1186, "MEAN_ANOMALY": 257.7397, "EPHEMERIS_TYPE": 0, "CLASSIFICATION_TYPE": "U", "NORAD_CAT_ID": 44334, "ELEMENT_SET_NO": 999, "REV_AT_EPOCH": 486, "BSTAR": 0, "MEAN_MOTION_DOT": 6.9e-07, "MEAN_MOTION_DDOT": 0}, "tle": {"line1": "1 44334U 19034B   25336.14770955  .00000069  00000+0  00000+0 0  9995", "line2": "2 44334   0.0767 181.5669 0003345  52.1186 257.7397  1.00269329  4864"}}, "geometry": {"type": "Point", "coordinates": [-118.78088148845464, 0.036975283043453454]}}, {"type": "Feature", "properties": {"norad_id": 44624, "name": "EUTELSAT 5 WEST B", "group": "eutelsat", "lat": -0.09601612452203423, "lon": -130.7822033604474, "alt_km": 35771.662315341724, "timestamp": "2025-12-02T10:50:46.944959+00:00", "meta": {"OBJECT_NAME": "EUTELSAT 5 WEST B", "OBJECT_ID": "2019-067A", "EPOCH": "2025-12-02T03:29:12.439104", "MEAN_MOTION": 1.00272616, "ECCENTRICITY": 0.0003637, "INCLINATION": 0.0731, "RA_OF_ASC_NODE": 325.5648, "ARG_OF_PERICENTER": 286.6233, "MEAN_ANOMALY": 226.3776, "EPHEMERIS_TYPE": 0, "CLASSIFICATION_TYPE": "U", "NORAD_CAT_ID": 44624, "ELEMENT_SET_NO": 999, "REV_AT_EPOCH": 2246, "BSTAR": 0, "MEAN_MOTION_DOT": -2.1e-07, "MEAN_MOTION_DDOT": 0}, "tle": {"line1": "1 44624U 19067A   25336.14528286 -.00000021  00000+0  00000+0 0  9990", "line2": "2 44624   0.0731 325.5648 0003637 286.6233 226.3776  1.00272616 22467"}}, "geometry": {"type": "Point", "coordinates": [-130.7822033604474, -0.09601612452203423]}}, {"type": "Feature", "properties": {"norad_id": 45027, "name": "EUTELSAT KONNECT", "group": "eutelsat", "lat": 0.010747724348013911, "lon": -118.60928897498987, "alt_km": 35782.19509971723, "timestamp": "2025-12-02T10:50:46.944970+00:00", "meta": {"OBJECT_NAME": "EUTELSAT KONNECT", "OBJECT_ID": "2020-005B", "EPOCH": "2025-12-02T00:48:38.717280", "MEAN_MOTION": 1.00267792, "ECCENTRICITY": 0.000171, "INCLINATION": 0.0682, "RA_OF_ASC_NODE": 99.0592, "ARG_OF_PERICENTER": 188.9784, "MEAN_ANOMALY": 162.455, "EPHEMERIS_TYPE": 0, "CLASSIFICATION_TYPE": "U", "NORAD_CAT_ID": 45027, "ELEMENT_SET_NO": 999, "REV_AT_EPOCH": 2235, "BSTAR": 0, "MEAN_MOTION_DOT": 7e-07, "MEAN_MOTION_DDOT": 0}, "tle": {"line1": "1 45027U 20005B   25336.03378145  .00000070  00000+0  00000+0 0  9990", "line2": "2 45027   0.0682  99.0592 0001710 188.9784 162.4550  1.00267792 22353"}}, "geometry": {"type": "Point", "coordinates": [-118.60928897498987, 0.010747724348013911]}}, {"type": "Feature", "properties": {"norad_id": 49056, "name": "EUTELSAT QUANTUM", "group": "eutelsat", "lat": -0.025623437578522302, "lon": -78.05518033030174, "alt_km": 35771.28535465019, "timestamp": "2025-12-02T10:50:46.944982+00:00", "meta": {"OBJECT_NAME": "EUTELSAT QUANTUM", "OBJECT_ID": "2021-069B", "EPOCH": "2025-12-02T03:44:18.491712", "MEAN_MOTION": 1.00271228, "ECCENTRICITY": 0.0003685, "INCLINATION": 0.0151, "RA_OF_ASC_NODE": 1.9478, "ARG_OF_PERICENTER": 263.2618, "MEAN_ANOMALY": 269.8413, "EPHEMERIS_TYPE": 0, "CLASSIFICATION_TYPE": "U", "NORAD_CAT_ID": 49056, "ELEMENT_SET_NO": 999, "REV_AT_EPOCH": 1595, "BSTAR": 0, "MEAN_MOTION_DOT": 1.47e-06, "MEAN_MOTION_DDOT": 0}, "tle": {"line1": "1 49056U 21069B   25336.15576958  .00000147  00000+0  00000+0 0  9997", "line2": "2 49056   0.0151   1.9478 0003685 263.2618 269.8413  1.00271228 15958"}}, "geometry": {"type": "Point", "coordinates": [-78.05518033030174, -0.025623437578522302]}}, {"type": "Feature", "properties": {"norad_id": 53765, "name": "EUTELSAT KONNECT VHTS", "group": "eutelsat", "lat": 0.00913690763217706, "lon": -123.07440222214154, "alt_km": 35775.443772089, "timestamp": "2025-12-02T10:50:46.944993+00:00", "meta": {"OBJECT_NAME": "EUTELSAT KONNECT VHTS", "OBJECT_ID": "2022-110A", "EPOCH": "2025-12-02T03:31:27.223104", "MEAN_MOTION": 1.00268766, "ECCENTRICITY": 0.0002736, "INCLINATION": 0.0568, "RA_OF_ASC_NODE": 108.832, "ARG_OF_PERICENTER": 119.7418, "MEAN_ANOMALY": 258.246, "EPHEMERIS_TYPE": 0, "CLASSIFICATION_TYPE": "U", "NORAD_CAT_ID": 53765, "ELEMENT_SET_NO": 999, "REV_AT_EPOCH": 485, "BSTAR": 0, "MEAN_MOTION_DOT": 3.8e-07, "MEAN_MOTION_DDOT": 0}, "tle": {"line1": "1 53765U 22110A   25336.14684286  .00000038  00000+0  00000+0 0  9999", "line2": "2 53765   0.0568 108.8320 0002736 119.7418 258.2460  1.00268766  4858"}}, "geometry": {"type": "Point", "coordinates": [-123.07440222214154, 0.00913690763217706]}}, {"type": "Feature", "properties": {"norad_id": 54048, "name": "EUTELSAT HOTBIRD 13F", "group": "eutelsat", "lat": -0.05596524392370999, "lon": -112.79755204870602, "alt_km": 35789.39438617924, "timestamp": "2025-12-02T10:50:46.945005+00:00", "meta": {"OBJECT_NAME": "EUTELSAT HOTBIRD 13F", "OBJECT_ID": "2022-134A", "EPOCH": "2025-12-01T22:26:58.691328", "MEAN_MOTION": 1.00270089, "ECCENTRICITY": 0.0002069, "INCLINATION": 0.0548, "RA_OF_ASC_NODE": 289.3102, "ARG_OF_PERICENTER": 67.0046, "MEAN_ANOMALY": 64.4812, "EPHEMERIS_TYPE": 0, "CLASSIFICATION_TYPE": "U", "NORAD_CAT_ID": 54048, "ELEMENT_SET_NO": 999, "REV_AT_EPOCH": 1139, "BSTAR": 0, "MEAN_MOTION_DOT": 1.08e-06, "MEAN_MOTION_DDOT": 0}, "tle": {"line1": "1 54048U 22134A   25335.93540152  .00000108  00000+0  00000+0 0  9997", "line2": "2 54048   0.0548 289.3102 0002069  67.0046  64.4812  1.00270089 11391"}}, "geometry": {"type": "Point", "coordinates": [-112.79755204870602, -0.05596524392370999]}}, {"type": "Feature", "properties": {"norad_id": 54225, "name": "EUTELSAT HOTBIRD 13G", "group": "eutelsat", "lat": -0.011633473093885271, "lon": -112.75536316006543, "alt_km": 35781.607534261515, "timestamp": "2025-12-02T10:50:46.945016+00:00", "meta": {"OBJECT_NAME": "EUTELSAT HOTBIRD 13G", "OBJECT_ID": "2022-146A", "EPOCH": "2025-12-02T00:40:38.513856", "MEAN_MOTION": 1.0027224, "ECCENTRICITY": 0.0002087, "INCLINATION": 0.0472, "RA_OF_ASC_NODE": 239.1671, "ARG_OF_PERICENTER": 307.1755, "MEAN_ANOMALY": 267.9561, "EPHEMERIS_TYPE": 0, "CLASSIFICATION_TYPE": "U", "NORAD_CAT_ID": 54225, "ELEMENT_SET_NO": 999, "REV_AT_EPOCH": 548, "BSTAR": 0, "MEAN_MOTION_DOT": 1.09e-06, "MEAN_MOTION_DDOT": 0}, "tle": {"line1": "1 54225U 22146A   25336.02822354  .00000109  00000+0  00000+0 0  9996", "line2": "2 54225   0.0472 239.1671 0002087 307.1755 267.9561  1.00272240  5488"}}, "geometry": {"type": "Point", "coordinates": [-112.75536316006543, -0.011633473093885271]}}, {"type": "Feature", "properties": {"norad_id": 54259, "name": "EUTELSAT 10B", "group": "eutelsat", "lat": 0.002617437001842883, "lon": -115.74050840017414, "alt_km": 35785.17014158942, "timestamp": "2025-12-02T10:50:46.945045+00:00", "meta": {"OBJECT_NAME": "EUTELSAT 10B", "OBJECT_ID": "2022-157A", "EPOCH": "2025-12-02T03:33:34.521408", "MEAN_MOTION": 1.00268876, "ECCENTRICITY": 0.00011, "INCLINATION": 0.0575, "RA_OF_ASC_NODE": 105.0313, "ARG_OF_PERICENTER": 70.6333, "MEAN_ANOMALY": 319.0136, "EPHEMERIS_TYPE": 0, "CLASSIFICATION_TYPE": "U", "NORAD_CAT_ID": 54259, "ELEMENT_SET_NO": 999, "REV_AT_EPOCH": 1105, "BSTAR": 0, "MEAN_MOTION_DOT": 8.9e-07, "MEAN_MOTION_DDOT": 0}, "tle": {"line1": "1 54259U 22157A   25336.14831622  .00000089  00000+0  00000+0 0  9993", "line2": "2 54259   0.0575 105.0313 0001100  70.6333 319.0136  1.00268876 11059"}}, "geometry": {"type": "Point", "coordinates": [-115.74050840017414, 0.002617437001842883]}}, {"type": "Feature", "properties": {"norad_id": 59346, "name": "EUTELSAT 36D", "group": "eutelsat", "lat": -0.03217508927515747, "lon": -89.895644272205, "alt_km": 35784.86895540085, "timestamp": "2025-12-02T10:50:46.945058+00:00", "meta": {"OBJECT_NAME": "EUTELSAT 36D", "OBJECT_ID": "2024-059A", "EPOCH": "2025-12-02T01:11:38.763744", "MEAN_MOTION": 1.00269503, "ECCENTRICITY": 4.65e-05, "INCLINATION": 0.018, "RA_OF_ASC_NODE": 329.7734, "ARG_OF_PERICENTER": 323.4878, "MEAN_ANOMALY": 191.6963, "EPHEMERIS_TYPE": 0, "CLASSIFICATION_TYPE": "U", "NORAD_CAT_ID": 59346, "ELEMENT_SET_NO": 999, "REV_AT_EPOCH": 617, "BSTAR": 0, "MEAN_MOTION_DOT": 1.77e-06, "MEAN_MOTION_DDOT": 0}, "tle": {"line1": "1 59346U 24059A   25336.04975421  .00000177  00000+0  00000+0 0  9991", "line2": "2 59346   0.0180 329.7734 0000465 323.4878 191.6963  1.00269503  6178"}}, "geometry": {"type": "Point", "coordinates": [-89.895644272205, -0.03217508927515747]}}]}